STARLINK-34158          
1 63996U 25101C   26068.14442162  .00031986  00000+0  11660-2 0  9990
2 63996  43.0035   0.9277 0001360 284.6533  75.4168 15.27603972 46975
2025-155V               
1 64895U 25155V   26068.85787115  .00013705  00000+0  51002-3 0  9990
2 64895  97.4485  37.2490 0008035 152.8264 207.3397 15.27583301 65579
